QIANFAN-41              
1 62242U 24232F   25297.73133443  .00000209  00000+0  30486-3 0  9996
2 62242  89.0034  46.1308 0012816 339.0285  21.0339 13.50980754 92632
QIANFAN-42              
1 62243U 24232G   25297.74006603  .00000830  00000+0  35246-3 0  9994
2 62243  89.0029  42.9418 0013305 239.4774 120.5106 14.24408117 94395
QIANFAN-43              
1 62244U 24232H   25297.72724323  .00000201  00000+0  29217-3 0  9992
2 62244  89.0038  46.1943 0014458 344.0507  16.0187 13.50981709 61249
QIANFAN-44              
1 62245U 24232J   25297.71482771  .00000199  00000+0  29014-3 0  9991
2 62245  89.0037  46.0072 0012617 341.7197  18.3499 13.50982900 92716
QIANFAN-45              
1 62246U 24232K   25297.68199734  .00000182  00000+0  26318-3 0  9998
2 62246  89.0040  46.1552 0013247 341.1582  18.9078 13.50979442 92634
QIANFAN-46              
1 62247U 24232L   25297.70665361  .00000199  00000+0  29008-3 0  9993
2 62247  89.0036  46.2238 0013479 346.9419  13.1381 13.50980051 92598
QIANFAN-47              
1 62248U 24232M   25297.71077148  .00000213  00000+0  31066-3 0  9999
2 62248  89.0032  46.1582 0013874 345.8355  14.2405 13.50981891 92628
QIANFAN-48              
1 62249U 24232N   25297.67382830  .00000203  00000+0  29529-3 0  9992
2 62249  89.0036  46.1619 0016177 347.8431  12.2328 13.50977908 92626
